CCSDS_OMM_VERS = 2.0
CREATION_DATE  = 
ORIGINATOR     = 

OBJECT_NAME    = 2025-234B
OBJECT_ID      = 2025-234B
CENTER_NAME    = EARTH
REF_FRAME      = TEME
TIME_SYSTEM    = UTC
MEAN_ELEMENT_THEORY = SGP/SGP4

EPOCH          = 2025-10-30T05:49:55.416864
MEAN_MOTION    = 15.21084040
ECCENTRICITY   = .00136989
INCLINATION    = 97.5047
RA_OF_ASC_NODE = 8.8709
ARG_OF_PERICENTER = 239.7756
MEAN_ANOMALY   = 120.2124

EPHEMERIS_TYPE = 0
CLASSIFICATION_TYPE = U
NORAD_CAT_ID   = 66054
ELEMENT_SET_NO = 999
REV_AT_EPOCH   = 169
BSTAR          = .44855404E-3
MEAN_MOTION_DOT = .993E-4
MEAN_MOTION_DDOT = 0

CCSDS_OMM_VERS = 2.0
CREATION_DATE  = 
ORIGINATOR     = 

OBJECT_NAME    = 2025-234C
OBJECT_ID      = 2025-234C
CENTER_NAME    = EARTH
REF_FRAME      = TEME
TIME_SYSTEM    = UTC
MEAN_ELEMENT_THEORY = SGP/SGP4

EPOCH          = 2025-10-30T05:49:00.260832
MEAN_MOTION    = 15.21265524
ECCENTRICITY   = .00143603
INCLINATION    = 97.4570
RA_OF_ASC_NODE = 8.8091
ARG_OF_PERICENTER = 242.0839
MEAN_ANOMALY   = 117.8944

EPHEMERIS_TYPE = 0
CLASSIFICATION_TYPE = U
NORAD_CAT_ID   = 66055
ELEMENT_SET_NO = 999
REV_AT_EPOCH   = 169
BSTAR          = .36628586E-3
MEAN_MOTION_DOT = .814E-4
MEAN_MOTION_DDOT = 0

CCSDS_OMM_VERS = 2.0
CREATION_DATE  = 
ORIGINATOR     = 

OBJECT_NAME    = 2025-234D
OBJECT_ID      = 2025-234D
CENTER_NAME    = EARTH
REF_FRAME      = TEME
TIME_SYSTEM    = UTC
MEAN_ELEMENT_THEORY = SGP/SGP4

EPOCH          = 2025-10-30T05:48:22.920480
MEAN_MOTION    = 15.21489005
ECCENTRICITY   = .00144028
INCLINATION    = 97.4550
RA_OF_ASC_NODE = 8.8068
ARG_OF_PERICENTER = 240.5972
MEAN_ANOMALY   = 119.3827

EPHEMERIS_TYPE = 0
CLASSIFICATION_TYPE = U
NORAD_CAT_ID   = 66056
ELEMENT_SET_NO = 999
REV_AT_EPOCH   = 168
BSTAR          = .10997228E-2
MEAN_MOTION_DOT = .24796E-3
MEAN_MOTION_DDOT = 0

CCSDS_OMM_VERS = 2.0
CREATION_DATE  = 
ORIGINATOR     = 

OBJECT_NAME    = 2025-234E
OBJECT_ID      = 2025-234E
CENTER_NAME    = EARTH
REF_FRAME      = TEME
TIME_SYSTEM    = UTC
MEAN_ELEMENT_THEORY = SGP/SGP4

EPOCH          = 2025-10-22T03:39:05.023008
MEAN_MOTION    = 15.21126112
ECCENTRICITY   = .00221527
INCLINATION    = 97.5441
RA_OF_ASC_NODE = 0.7365
ARG_OF_PERICENTER = 241.6098
MEAN_ANOMALY   = 118.2904

EPHEMERIS_TYPE = 0
CLASSIFICATION_TYPE = U
NORAD_CAT_ID   = 66057
ELEMENT_SET_NO = 999
REV_AT_EPOCH   = 46
BSTAR          = .33848292E-3
MEAN_MOTION_DOT = .7512E-4
MEAN_MOTION_DDOT = 0

CCSDS_OMM_VERS = 2.0
CREATION_DATE  = 
ORIGINATOR     = 

OBJECT_NAME    = TJS-20
OBJECT_ID      = 2025-238A
CENTER_NAME    = EARTH
REF_FRAME      = TEME
TIME_SYSTEM    = UTC
MEAN_ELEMENT_THEORY = SGP/SGP4

EPOCH          = 2025-10-24T00:30:38.644704
MEAN_MOTION    = 1.72601617
ECCENTRICITY   = .77630572
INCLINATION    = 16.4249
RA_OF_ASC_NODE = 273.2021
ARG_OF_PERICENTER = 165.3209
MEAN_ANOMALY   = 248.2978

EPHEMERIS_TYPE = 0
CLASSIFICATION_TYPE = U
NORAD_CAT_ID   = 66142
ELEMENT_SET_NO = 999
REV_AT_EPOCH   = 2
BSTAR          = .89265633E-3
MEAN_MOTION_DOT = .7775E-4
MEAN_MOTION_DDOT = .152554E-5

CCSDS_OMM_VERS = 2.0
CREATION_DATE  = 
ORIGINATOR     = 

OBJECT_NAME    = CZ-5 R/B
OBJECT_ID      = 2025-238B
CENTER_NAME    = EARTH
REF_FRAME      = TEME
TIME_SYSTEM    = UTC
MEAN_ELEMENT_THEORY = SGP/SGP4

EPOCH          = 2025-10-30T04:20:50.570304
MEAN_MOTION    = 1.93001887
ECCENTRICITY   = .75959564
INCLINATION    = 16.3944
RA_OF_ASC_NODE = 271.1904
ARG_OF_PERICENTER = 168.1217
MEAN_ANOMALY   = 234.1174

EPHEMERIS_TYPE = 0
CLASSIFICATION_TYPE = U
NORAD_CAT_ID   = 66143
ELEMENT_SET_NO = 999
REV_AT_EPOCH   = 14
BSTAR          = .14978681E-2
MEAN_MOTION_DOT = .32676E-3
MEAN_MOTION_DDOT = -.827072E-6

CCSDS_OMM_VERS = 2.0
CREATION_DATE  = 
ORIGINATOR     = 

OBJECT_NAME    = SPAINSAT NG II
OBJECT_ID      = 2025-239A
CENTER_NAME    = EARTH
REF_FRAME      = TEME
TIME_SYSTEM    = UTC
MEAN_ELEMENT_THEORY = SGP/SGP4

EPOCH          = 2025-10-27T22:45:30.969504
MEAN_MOTION    = 1.15299465
ECCENTRICITY   = .81891439
INCLINATION    = 26.1863
RA_OF_ASC_NODE = 246.2237
ARG_OF_PERICENTER = 179.5119
MEAN_ANOMALY   = 183.0640

EPHEMERIS_TYPE = 0
CLASSIFICATION_TYPE = U
NORAD_CAT_ID   = 66144
ELEMENT_SET_NO = 999
REV_AT_EPOCH   = 6
BSTAR          = .18821197E-2
MEAN_MOTION_DOT = -.13E-5
MEAN_MOTION_DDOT = 0

CCSDS_OMM_VERS = 2.0
CREATION_DATE  = 
ORIGINATOR     = 

OBJECT_NAME    = HTV-X1
OBJECT_ID      = 2025-241A
CENTER_NAME    = EARTH
REF_FRAME      = TEME
TIME_SYSTEM    = UTC
MEAN_ELEMENT_THEORY = SGP/SGP4

EPOCH          = 2025-10-27T11:51:43.149024
MEAN_MOTION    = 15.52723727
ECCENTRICITY   = .0004046
INCLINATION    = 51.6338
RA_OF_ASC_NODE = 11.4824
ARG_OF_PERICENTER = 344.0379
MEAN_ANOMALY   = 16.0483

EPHEMERIS_TYPE = 0
CLASSIFICATION_TYPE = U
NORAD_CAT_ID   = 66174
ELEMENT_SET_NO = 999
REV_AT_EPOCH   = 24
BSTAR          = .16773E-3
MEAN_MOTION_DOT = .10095E-3
MEAN_MOTION_DDOT = 0

CCSDS_OMM_VERS = 2.0
CREATION_DATE  = 
ORIGINATOR     = 

OBJECT_NAME    = GAOFEN-14 02
OBJECT_ID      = 2025-242A
CENTER_NAME    = EARTH
REF_FRAME      = TEME
TIME_SYSTEM    = UTC
MEAN_ELEMENT_THEORY = SGP/SGP4

EPOCH          = 2025-10-28T02:32:28.748256
MEAN_MOTION    = 15.27335919
ECCENTRICITY   = .0010327
INCLINATION    = 97.4398
RA_OF_ASC_NODE = 13.2893
ARG_OF_PERICENTER = 261.9781
MEAN_ANOMALY   = 98.0286

EPHEMERIS_TYPE = 0
CLASSIFICATION_TYPE = U
NORAD_CAT_ID   = 66175
ELEMENT_SET_NO = 999
REV_AT_EPOCH   = 30
BSTAR          = .55401E-3
MEAN_MOTION_DOT = .14793E-3
MEAN_MOTION_DDOT = 0

CCSDS_OMM_VERS = 2.0
CREATION_DATE  = 
ORIGINATOR     = 

OBJECT_NAME    = CZ-3B R/B
OBJECT_ID      = 2025-242B
CENTER_NAME    = EARTH
REF_FRAME      = TEME
TIME_SYSTEM    = UTC
MEAN_ELEMENT_THEORY = SGP/SGP4

EPOCH          = 2025-10-28T22:23:52.906272
MEAN_MOTION    = 15.40950652
ECCENTRICITY   = .010504
INCLINATION    = 97.4517
RA_OF_ASC_NODE = 13.9913
ARG_OF_PERICENTER = 32.7474
MEAN_ANOMALY   = 328.0225

EPHEMERIS_TYPE = 0
CLASSIFICATION_TYPE = U
NORAD_CAT_ID   = 66176
ELEMENT_SET_NO = 999
REV_AT_EPOCH   = 43
BSTAR          = .72796E-3
MEAN_MOTION_DOT = .36568E-3
MEAN_MOTION_DDOT = 0

CCSDS_OMM_VERS = 2.0
CREATION_DATE  = 
ORIGINATOR     = 

OBJECT_NAME    = 2025-242C
OBJECT_ID      = 2025-242C
CENTER_NAME    = EARTH
REF_FRAME      = TEME
TIME_SYSTEM    = UTC
MEAN_ELEMENT_THEORY = SGP/SGP4

EPOCH          = 2025-10-26T09:41:17.179584
MEAN_MOTION    = 15.17165482
ECCENTRICITY   = .0044551
INCLINATION    = 97.6110
RA_OF_ASC_NODE = 12.4552
ARG_OF_PERICENTER = 134.5252
MEAN_ANOMALY   = 225.9635

EPHEMERIS_TYPE = 0
CLASSIFICATION_TYPE = U
NORAD_CAT_ID   = 66177
ELEMENT_SET_NO = 999
REV_AT_EPOCH   = 3
BSTAR          = .21434E-3
MEAN_MOTION_DOT = .4293E-4
MEAN_MOTION_DDOT = 0

CCSDS_OMM_VERS = 2.0
CREATION_DATE  = 
ORIGINATOR     = 

OBJECT_NAME    = GRAVITY-1 R/B
OBJECT_ID      = 2025-226E
CENTER_NAME    = EARTH
REF_FRAME      = TEME
TIME_SYSTEM    = UTC
MEAN_ELEMENT_THEORY = SGP/SGP4

EPOCH          = 2025-10-27T18:31:13.912320
MEAN_MOTION    = 15.53131202
ECCENTRICITY   = .0163665
INCLINATION    = 97.7931
RA_OF_ASC_NODE = 16.4406
ARG_OF_PERICENTER = 339.2938
MEAN_ANOMALY   = 20.1731

EPHEMERIS_TYPE = 0
CLASSIFICATION_TYPE = U
NORAD_CAT_ID   = 66205
ELEMENT_SET_NO = 999
REV_AT_EPOCH   = 33
BSTAR          = .39974E-3
MEAN_MOTION_DOT = .44484E-3
MEAN_MOTION_DDOT = .28228E-5

