2025-234B               
1 66054U 25234B   25303.24300251  .00009930  00000+0  44855-3 0  9996
2 66054  97.5047   8.8709 0013698 239.7756 120.2124 15.21084040  1696
2025-234C               
1 66055U 25234C   25303.24236413  .00008140  00000+0  36629-3 0  9997
2 66055  97.4570   8.8091 0014360 242.0839 117.8944 15.21265524  1697
2025-234D               
1 66056U 25234D   25303.24193195  .00024796  00000+0  10997-2 0  9991
2 66056  97.4550   8.8068 0014402 240.5972 119.3827 15.21489005  1686
2025-234E               
1 66057U 25234E   25295.15214147  .00007512  00000+0  33848-3 0  9991
2 66057  97.5441   0.7365 0022152 241.6098 118.2904 15.21126112   466
TJS-20                  
1 66142U 25238A   25297.02128061  .00007775  15255-5  89266-3 0  9997
2 66142  16.4249 273.2021 7763057 165.3209 248.2978  1.72601617    28
CZ-5 R/B                
1 66143U 25238B   25303.18114086  .00032676 -82707-6  14979-2 0  9999
2 66143  16.3944 271.1904 7595956 168.1217 234.1174  1.93001887   149
SPAINSAT NG II          
1 66144U 25239A   25300.94827511 -.00000130  00000+0  18821-2 0  9995
2 66144  26.1863 246.2237 8189143 179.5119 183.0640  1.15299465    62
HTV-X1                  
1 66174U 25241A   25300.49424941  .00010095  00000+0  16773-3 0  9996
2 66174  51.6338  11.4824 0004046 344.0379  16.0483 15.52723727   245
GAOFEN-14 02            
1 66175U 25242A   25301.10588829  .00014793  00000+0  55401-3 0  9993
2 66175  97.4398  13.2893 0010327 261.9781  98.0286 15.27335919   301
CZ-3B R/B               
1 66176U 25242B   25301.93325123  .00036568  00000+0  72796-3 0  9991
2 66176  97.4517  13.9913 0105040  32.7474 328.0225 15.40950652   430
2025-242C               
1 66177U 25242C   25299.40367106  .00004293  00000+0  21434-3 0  9990
2 66177  97.6110  12.4552 0044551 134.5252 225.9635 15.17165482    38
GRAVITY-1 R/B           
1 66205U 25226E   25300.77168880  .00044484  28228-5  39974-3 0  9997
2 66205  97.7931  16.4406 0163665 339.2938  20.1731 15.53131202   335
